{
    "links": {
        "self": "http://www.neowsapp.com/rest/v1/neo/3426809?api_key=iIulBulltgU6a56xZRHN4H3l9WmuAYTsLGpBGhQ2"
    },
    "id": "3426809",
    "neo_reference_id": "3426809",
    "name": "(2008 RS24)",
    "designation": "2008 RS24",
    "nasa_jpl_url": "http://ssd.jpl.nasa.gov/sbdb.cgi?sstr=3426809",
    "absolute_magnitude_h": 22.6,
    "estimated_diameter": {
        "kilometers": {
            "estimated_diameter_min": 0.0802703167,
            "estimated_diameter_max": 0.1794898848
        },
        "meters": {
            "estimated_diameter_min": 80.2703167283,
            "estimated_diameter_max": 179.4898847799
        },
        "miles": {
            "estimated_diameter_min": 0.049877647,
            "estimated_diameter_max": 0.1115298092
        },
        "feet": {
            "estimated_diameter_min": 263.3540659348,
            "estimated_diameter_max": 588.8775935812
        }
    },
    "is_potentially_hazardous_asteroid": false,
    "close_approach_data": [
        {
            "close_approach_date": "2008-09-27",
            "close_approach_date_full": "2008-Sep-27 16:26",
            "epoch_date_close_approach": 1222532760000,
            "relative_velocity": {
                "kilometers_per_second": "13.8032975038",
                "kilometers_per_hour": "49691.8710135356",
                "miles_per_hour": "30876.5961861605"
            },
            "miss_distance": {
                "astronomical": "0.166163826",
                "lunar": "64.637728314",
                "kilometers": "24857754.44065062",
                "miles": "15445892.373873756"
            },
            "orbiting_body": "Earth"
        }
    ],
    "orbital_data": {
        "orbit_id": "6",
        "orbit_determination_date": "2017-04-06 09:03:00",
        "first_observation_date": "2008-09-06",
        "last_observation_date": "2008-09-08",
        "data_arc_in_days": 2,
        "observations_used": 22,
        "orbit_uncertainty": "9",
        "minimum_orbit_intersection": ".101783",
        "jupiter_tisserand_invariant": "3.427",
        "epoch_osculation": "2454716.5",
        "eccentricity": ".6168792785535342",
        "semi_major_axis": "2.106586127777011",
        "inclination": "17.22666920987354",
        "ascending_node_longitude": "160.1819057198345",
        "orbital_period": "1116.779046173926",
        "perihelion_distance": ".8070767970630451",
        "perihelion_argument": "264.2476734638062",
        "aphelion_distance": "3.406095458490976",
        "perihelion_time": "2454783.166529373389",
        "mean_anomaly": "338.509669699979",
        "mean_motion": ".3223556183592058",
        "equinox": "J2000",
        "orbit_class": {
            "orbit_class_type": "APO",
            "orbit_class_description": "Near-Earth asteroid orbits which cross the Earth’s orbit similar to that of 1862 Apollo",
            "orbit_class_range": "a (semi-major axis) > 1.0 AU; q (perihelion) < 1.017 AU"
        }
    },
    "is_sentry_object": false
}